NORAD_CAT_ID,OBJECT_NAME,OBJECT_TYPE,EPOCH,MEAN_MOTION,ECCENTRICITY,INCLINATION,RA_OF_ASC_NODE,ARG_OF_PERICENTER,MEAN_ANOMALY,BSTAR,MEAN_MOTION_DOT,MEAN_MOTION_DDOT,TLE_LINE0,TLE_LINE1,TLE_LINE2,SEMIMAJOR_AXIS,PERIOD,APOGEE,PERIGEE,DECAYED
52845.0,STARLINK-4168,PAYLOAD,2024-02-12 14:15:15,15.08841833,0.0001602,53.2174,188.4354,72.8563,287.2604,4.1844e-05,3.78e-06,0.0,0 STARLINK-4168,1 52845U 22062R   24043.59393464  .00000378  00000-0  41844-4 0  9995,2 52845  53.2174 188.4354 0001602  72.8563 287.2604 15.08841833 91641,6917.875,95.437,540.848,538.632,0.0
52845.0,STARLINK-4168,PAYLOAD,2024-02-12 15:50:38,15.08847734,0.0001565,53.2176,188.136,78.0503,282.0664,2.8675e-05,1.68e-06,0.0,0 STARLINK-4168,1 52845U 22062R   24043.66017089  .00000168  00000-0  28675-4 0  9993,2 52845  53.2176 188.1360 0001565  78.0503 282.0664 15.08847734 92148,6917.857,95.437,540.804,538.639,0.0
52845.0,STARLINK-4168,PAYLOAD,2024-02-13 12:30:40,15.08836654,0.0001593,53.2174,184.2701,92.2887,267.8287,-2.5483e-05,-6.94e-06,0.0,0 STARLINK-4168,1 52845U 22062R   24044.52129984 -.00000694  00000-0 -25483-4 0  9997,2 52845  53.2174 184.2701 0001593  92.2887 267.8287 15.08836654 92271,6917.891,95.438,540.858,538.654,0.0
52845.0,STARLINK-4168,PAYLOAD,2024-02-13 14:06:03,15.08836461,0.0001597,53.2174,183.973,94.3219,265.7956,-1.8639e-05,-5.85e-06,0.0,0 STARLINK-4168,1 52845U 22062R   24044.58753997 -.00000585  00000-0 -18639-4 0  9994,2 52845  53.2174 183.9730 0001597  94.3219 265.7956 15.08836461 91797,6917.891,95.438,540.861,538.651,0.0
52845.0,STARLINK-4168,PAYLOAD,2024-02-13 18:52:12,15.08843845,0.0001573,53.218,183.0773,100.6457,259.4712,-3.1808e-05,-7.94e-06,0.0,0 STARLINK-4168,1 52845U 22062R   24044.78625471 -.00000794  00000-0 -31808-4 0  9996,2 52845  53.2180 183.0773 0001573 100.6457 259.4712 15.08843845 91829,6917.869,95.437,540.822,538.645,0.0
52845.0,STARLINK-4168,PAYLOAD,2024-02-14 15:32:13,15.08842196,0.0001548,53.2166,179.2154,95.755,264.3619,8.435e-05,1.055e-05,0.0,0 STARLINK-4168,1 52845U 22062R   24045.64737463  .00001055  00000-0  84350-4 0  9996,2 52845  53.2166 179.2154 0001548  95.7550 264.3619 15.08842196 91956,6917.874,95.437,540.81,538.668,0.0
52845.0,STARLINK-4168,PAYLOAD,2024-02-15 12:12:14,15.08830807,0.0001343,53.2156,175.3498,89.297,270.8176,9.4755e-05,1.22e-05,0.0,0 STARLINK-4168,1 52845U 22062R   24046.50850348  .00001220  00000-0  94755-4 0  9994,2 52845  53.2156 175.3498 0001343  89.2970 270.8176 15.08830807 92575,6917.908,95.438,540.703,538.844,0.0
52845.0,STARLINK-4168,PAYLOAD,2024-02-15 13:47:37,15.08835452,0.000154,53.2174,175.0494,108.8502,251.2658,9.1702e-05,1.172e-05,0.0,0 STARLINK-4168,1 52845U 22062R   24046.57474060  .00001172  00000-0  91702-4 0  9999,2 52845  53.2174 175.0494 0001540 108.8502 251.2658 15.08835452 92092,6917.894,95.438,540.825,538.694,0.0
52845.0,STARLINK-4168,PAYLOAD,2024-02-15 15:23:00,15.0883802,0.0001233,53.2166,174.7547,92.9342,267.1792,0.00012145,1.645e-05,0.0,0 STARLINK-4168,1 52845U 22062R   24046.64097923  .00001645  00000-0  12145-3 0  9994,2 52845  53.2166 174.7547 0001233  92.9342 267.1792 15.08838020 92103,6917.886,95.438,540.604,538.898,0.0
52845.0,STARLINK-4168,PAYLOAD,2024-02-16 00:55:19,15.08841692,0.0001107,53.2163,172.971,86.2476,273.8643,2.4147e-05,9.7e-07,0.0,0 STARLINK-4168,1 52845U 22062R   24047.03841939  .00000097  00000-0  24147-4 0  9998,2 52845  53.2163 172.9710 0001107  86.2476 273.8643 15.08841692 92654,6917.875,95.437,540.506,538.974,0.0
52845.0,STARLINK-4168,PAYLOAD,2024-02-16 12:03:00,15.08850115,9.48e-05,53.2152,170.8848,77.714,282.3958,7.6798e-05,9.35e-06,0.0,0 STARLINK-4168,1 52845U 22062R   24047.50209124  .00000935  00000-0  76798-4 0  9994,2 52845  53.2152 170.8848 0000948  77.7140 282.3958 15.08850115 92728,6917.849,95.437,540.37,539.059,0.0
52845.0,STARLINK-4168,PAYLOAD,2024-02-16 15:13:45,15.08862977,0.0001163,53.2169,170.2956,100.4711,259.6412,0.00020931,3.047e-05,0.0,0 STARLINK-4168,1 52845U 22062R   24047.63455813  .00003047  00000-0  20931-3 0  9990,2 52845  53.2169 170.2956 0001163 100.4711 259.6412 15.08862977 92257,6917.81,95.436,540.48,538.871,0.0
52845.0,STARLINK-4168,PAYLOAD,2024-02-17 11:53:49,15.08830442,7.88e-05,53.2158,166.4278,92.4512,267.6571,-4.7906e-05,-1.05e-05,0.0,0 STARLINK-4168,1 52845U 22062R   24048.49570905 -.00001050  00000-0 -47906-4 0  9991,2 52845  53.2158 166.4278 0000788  92.4512 267.6571 15.08830442 92875,6917.91,95.438,540.32,539.229,0.0
52845.0,STARLINK-4168,PAYLOAD,2024-02-17 15:04:35,15.08826844,0.0001091,53.2177,165.8344,83.2887,276.823,-7.7552e-05,-1.521e-05,0.0,0 STARLINK-4168,1 52845U 22062R   24048.62819383 -.00001521  00000-0 -77552-4 0  9995,2 52845  53.2177 165.8344 0001091  83.2887 276.8230 15.08826844 92408,6917.921,95.438,540.54,539.031,0.0
52845.0,STARLINK-4168,PAYLOAD,2024-02-17 16:39:59,15.08825497,0.0001053,53.2177,165.5366,88.0809,272.0304,-6.341e-05,-1.296e-05,0.0,0 STARLINK-4168,1 52845U 22062R   24048.69443450 -.00001296  00000-0 -63410-4 0  9997,2 52845  53.2177 165.5366 0001053  88.0809 272.0304 15.08825497 92418,6917.925,95.438,540.518,539.061,0.0
52845.0,STARLINK-4168,PAYLOAD,2024-02-18 11:44:35,15.08847445,0.0001108,53.2165,161.9659,58.7763,301.3337,1.0804e-05,-1.16e-06,0.0,0 STARLINK-4168,1 52845U 22062R   24049.48930105 -.00000116  00000-0  10804-4 0  9991,2 52845  53.2165 161.9659 0001108  58.7763 301.3337 15.08847445 93021,6917.858,95.437,540.489,538.956,0.0
52845.0,STARLINK-4168,PAYLOAD,2024-02-18 14:55:20,15.08865218,9.47e-05,53.2175,161.375,78.8506,281.2592,3.6315e-05,2.91e-06,0.0,0 STARLINK-4168,1 52845U 22062R   24049.62176610  .00000291  00000-0  36315-4 0  9998,2 52845  53.2175 161.3750 0000947  78.8506 281.2592 15.08865218 92550,6917.803,95.436,540.323,539.013,0.0
52845.0,STARLINK-4168,PAYLOAD,2024-02-18 16:30:43,15.08866634,0.0001026,53.2169,161.0775,74.0761,286.0344,5.0598e-05,5.18e-06,0.0,0 STARLINK-4168,1 52845U 22062R   24049.68800419  .00000518  00000-0  50598-4 0  9996,2 52845  53.2169 161.0775 0001026  74.0761 286.0344 15.08866634 93054,6917.799,95.436,540.374,538.954,0.0
52845.0,STARLINK-4168,PAYLOAD,2024-02-19 11:35:23,15.08831901,9.3e-05,53.2165,157.5059,89.8439,270.266,0.00015343,2.154e-05,0.0,0 STARLINK-4168,1 52845U 22062R   24050.48290857  .00002154  00000-0  15343-3 0  9991,2 52845  53.2165 157.5059 0000930  89.8439 270.2660 15.08831901 93172,6917.905,95.438,540.414,539.127,0.0
52845.0,STARLINK-4168,PAYLOAD,2024-02-19 14:46:09,15.08833312,0.0001032,53.2171,156.9126,64.0415,296.0683,0.00019361,2.794e-05,0.0,0 STARLINK-4168,1 52845U 22062R   24050.61539069  .00002794  00000-0  19361-3 0  9991,2 52845  53.2171 156.9126 0001032  64.0415 296.0683 15.08833312 92707,6917.901,95.438,540.48,539.052,0.0
52845.0,STARLINK-4168,PAYLOAD,2024-02-20 13:01:33,15.08849365,0.0001125,53.2154,152.7516,67.5044,292.6067,2.44e-05,1.01e-06,0.0,0 STARLINK-4168,1 52845U 22062R   24051.54274462  .00000101  00000-0  24400-4 0  9998,2 52845  53.2154 152.7516 0001125  67.5044 292.6067 15.08849365 92842,6917.852,95.437,540.495,538.939,0.0
52845.0,STARLINK-4168,PAYLOAD,2024-02-21 12:52:20,15.08844625,0.0001284,53.2176,148.2905,83.1494,276.9644,0.00012695,1.733e-05,0.0,0 STARLINK-4168,1 52845U 22062R   24052.53634557  .00001733  00000-0  12695-3 0  9997,2 52845  53.2176 148.2905 0001284  83.1494 276.9644 15.08844625 93488,6917.866,95.437,540.62,538.843,0.0
52845.0,STARLINK-4168,PAYLOAD,2024-02-22 12:43:08,15.0880122,0.0001617,53.2177,143.8303,88.0054,272.1123,0.0006038,9.324e-05,0.0,0 STARLINK-4168,1 52845U 22062R   24053.52996041  .00009324  00000-0  60380-3 0  9994,2 52845  53.2177 143.8303 0001617  88.0054 272.1123 15.08801220 93639,6917.999,95.44,540.983,538.745,0.0
52845.0,STARLINK-4168,PAYLOAD,2024-02-23 10:58:30,15.08847631,0.0001267,53.217,139.6681,82.3739,277.7397,6.505e-05,7.48e-06,0.0,0 STARLINK-4168,1 52845U 22062R   24054.45730311  .00000748  00000-0  65050-4 0  9994,2 52845  53.2170 139.6681 0001267  82.3739 277.7397 15.08847631 93777,6917.857,95.437,540.599,538.846,0.0
52845.0,STARLINK-4168,PAYLOAD,2024-02-23 12:33:53,15.08849345,0.0001321,53.2175,139.3704,69.8632,290.2502,0.00010888,1.446e-05,0.0,0 STARLINK-4168,1 52845U 22062R   24054.52354144  .00001446  00000-0  10888-3 0  9992,2 52845  53.2175 139.3704 0001321  69.8632 290.2502 15.08849345 93297,6917.852,95.437,540.631,538.803,0.0
52845.0,STARLINK-4168,PAYLOAD,2024-02-23 22:06:12,15.08848656,0.0001393,53.2176,137.5858,88.8366,271.2786,3.658e-05,2.94e-06,0.0,0 STARLINK-4168,1 52845U 22062R   24054.92098087  .00000294  00000-0  36580-4 0  9995,2 52845  53.2176 137.5858 0001393  88.8366 271.2786 15.08848656 93356,6917.854,95.437,540.683,538.755,0.0
52845.0,STARLINK-4168,PAYLOAD,2024-02-24 12:24:42,15.08831082,0.0001646,53.2179,134.9122,97.6674,262.4505,1.2165e-05,-9.4e-07,0.0,0 STARLINK-4168,1 52845U 22062R   24055.51715794 -.00000094  00000-0  12165-4 0  9994,2 52845  53.2179 134.9122 0001646  97.6674 262.4505 15.08831082 93935,6917.908,95.438,540.911,538.634,0.0
52845.0,STARLINK-4168,PAYLOAD,2024-02-25 12:15:28,15.0884936,0.0001741,53.2183,130.4509,102.1993,257.9194,7.19e-05,8.57e-06,0.0,0 STARLINK-4168,1 52845U 22062R   24056.51074636  .00000857  00000-0  71900-4 0  9996,2 52845  53.2183 130.4509 0001741 102.1993 257.9194 15.08849360 94080,6917.852,95.437,540.921,538.512,0.0
52845.0,STARLINK-4168,PAYLOAD,2024-02-25 13:50:51,15.08855331,0.0001739,53.2185,130.1537,101.89,258.2287,0.00013041,1.789e-05,0.0,0 STARLINK-4168,1 52845U 22062R   24056.57698148  .00001789  00000-0  13041-3 0  9998,2 52845  53.2185 130.1537 0001739 101.8900 258.2287 15.08855331 93600,6917.834,95.437,540.902,538.496,0.0
52845.0,STARLINK-4168,PAYLOAD,2024-02-25 21:47:47,15.08843178,0.0001927,53.2174,128.6635,88.1652,271.9561,6.9577e-05,8.19e-06,0.0,0 STARLINK-4168,1 52845U 22062R   24056.90818786  .00000819  00000-0  69577-4 0  9996,2 52845  53.2174 128.6635 0001927  88.1652 271.9561 15.08843178 93657,6917.871,95.437,541.069,538.403,0.0
